COSMOS 2487             
1 39194U 13032A   21213.51923312  .00004551  00000-0  96897-4 0  9998
2 39194  74.7074 270.3817 0003801 280.5210  79.5576 15.45204133453262
IRIS                    
1 39197U 13033A   21213.24281369  .00000098  00000-0  20425-4 0  9997
2 39197  97.9670  37.0772 0027269 347.7884  12.2663 14.78878563436642
IRNSS-1A                
1 39199U 13034A   21210.75535302  .00000065  00000-0  00000+0 0  9998
2 39199  31.7162  90.3515 0018868 178.5484   5.6843  1.00273281 29768
SJ-11-05                
1 39202U 13035A   21213.57129493  .00000064  00000-0  22653-4 0  9999
2 39202  98.1502  17.8465 0012131  51.0063 309.2216 14.60952077428959
MUOS-2                  
1 39206U 13036A   21213.63334160  .00000066  00000-0  00000-0 0  9990
2 39206   2.5463  11.5404 0056698 176.7454 173.1395  1.00273452 29335
SHIYAN 7 (SY-7)         
1 39208U 13037A   21213.57667814  .00000057  00000-0  18231-4 0  9990
2 39208  98.0166 212.9010 0009694  55.2221 304.9896 14.68454298430607
CHUANGXIN-3 (CX-3)      
1 39209U 13037B   21213.44550482  .00000165  00000-0  36659-4 0  9993
2 39209  98.0196 212.8394 0005998  53.3713 306.8049 14.68534257430552
SHIJIAN-15 (SJ-15)      
1 39210U 13037C   21213.65411001  .00000048  00000-0  16840-4 0  9991
2 39210  98.0262 211.9697 0007917  50.4865 309.7038 14.67781952432875
ALPHASAT                
1 39215U 13038A   21213.11855138  .00000135  00000-0  00000-0 0  9995
2 39215   2.5972  16.6256 0002339 135.4666 225.3668  1.00272670 26152
INSAT-3D                
1 39216U 13038B   21213.59343087 -.00000155  00000-0  00000-0 0  9996
2 39216   0.0660 275.6846 0001533 237.3437  93.0976  1.00271657 29244
WGS F6 (USA 244)        
1 39222U 13041A   21213.25535311  .00000090  00000-0  00000-0 0  9990
2 39222   0.0124  76.7993 0000338 141.7846  48.1967  1.00272209 28191
ARIRANG-5 (KOMPSAT-5)   
1 39227U 13042A   21213.16063091 -.00000063  00000-0 -17461-6 0  9994
2 39227  97.6274  37.8993 0001699  72.9753  62.0503 15.04505466436125
ES'HAIL 1               
1 39233U 13044A   21213.24285337  .00000144  00000-0  00000-0 0  9994
2 39233   0.0487  30.9218 0001726 106.3060 285.7585  1.00274938 28774
GSAT-7                  
1 39234U 13044B   21213.57132712 -.00000076  00000-0  00000-0 0  9994
2 39234   0.0538 105.9393 0006168 144.5653 339.5613  1.00272106 27477
AMOS-4                  
1 39237U 13045A   21213.57688128  .00000008  00000-0  00000-0 0  9999
2 39237   0.0052 223.3262 0001848 248.5955 111.1694  1.00273315 29109
YAOGAN 17A              
1 39239U 13046A   21213.62841663 -.00000211  00000-0 -16426-3 0  9993
2 39239  63.4022 355.0355 0266964   5.5710 354.8190 13.45208212388852
YAOGAN 17B              
1 39240U 13046B   21213.55438605 -.00000191  00000-0 -13688-3 0  9999
2 39240  63.4032 355.4144 0266914   5.3016 355.0736 13.45207773388846
YAOGAN 17C              
1 39241U 13046C   21213.62847019 -.00000198  00000-0 -14734-3 0  9991
2 39241  63.4030 354.2828 0267723   5.2947 355.0811 13.45207997388877
GONETS-M 5              
1 39249U 13048A   21213.44477349 -.00000012  00000-0 -15881-3 0  9995
2 39249  82.4829  13.4766 0016783 137.7989 222.4387 12.42883418357822
GONETS-M 6              
1 39250U 13048B   21213.47256261  .00000002  00000-0 -58586-4 0  9996
2 39250  82.4857  14.1317 0018782 167.6177 192.5374 12.42951023357840
GONETS-M 7              
1 39251U 13048C   21213.42049155  .00000004  00000-0 -46560-4 0  9995
2 39251  82.4894  15.4394 0016733 133.8260 226.4212 12.42880516357805
HISAKI (SPRINT-A)       
1 39253U 13049A   21213.52986981  .00000084  00000-0  27528-4 0  9996
2 39253  29.7192 270.4846 0137349 344.7377  14.9079 13.55249105389675
AEHF-3 (USA 246)        
1 39256U 13050A   21213.58452302 -.00000143  00000-0  00000-0 0  9991
2 39256   0.9983  60.3023 0026762 190.8348  51.1129  1.00923781 27814
FENGYUN 3C              
1 39260U 13052A   21213.50386944  .00000001  00000-0  21226-4 0  9997
2 39260  98.4948 252.1455 0012265 113.6330 246.6138 14.15873839406640
CASSIOPE                
1 39265U 13055A   21213.49251118  .00003704  00000-0  10217-3 0  9997
2 39265  80.9645 244.7678 0647854 181.4795 178.4501 14.32521985406428
POPACS 1                
1 39268U 13055D   21213.27963994  .00005253  00000-0  13774-3 0  9990
2 39268  80.9976 221.6800 0602110  81.5855 285.3085 14.43194154407020
POPACS 2                
1 39269U 13055E   21213.41810386  .00002873  00000-0  81219-4 0  9998
2 39269  81.0129 269.5231 0666812 205.4190 151.2771 14.28012573404443
POPACS 3                
1 39270U 13055F   21213.52238255  .00001153  00000-0  35810-4 0  9997
2 39270  81.0169 297.0216 0701753 283.8224  68.5867 14.18593132403933
ASTRA 2E                
1 39285U 13056A   21213.37688299  .00000151  00000-0  00000-0 0  9990
2 39285   0.0594 349.7275 0002834 132.4046 352.1961  1.00269591 28584
SHIJIAN-16 (SJ-16)      
1 39358U 13057A   21213.56525348  .00000273  00000-0  34448-4 0  9990
2 39358  74.9755 107.6481 0019894 209.9618 150.0438 14.85819012421489
FM-6                    
1 39360U 13058A   21213.35465924 -.00000015  00000-0  00000-0 0  9992
2 39360   0.0425 263.6209 0000621 115.7815 302.2890  1.00271789 28200
RADUGA-1M 3             
1 39375U 13062A   21212.38591036  .00000153  00000-0  00000-0 0  9991
2 39375   1.4302  93.4132 0001070 329.8007  59.8581  1.00273990 28263
STPSAT-3                
1 39380U 13064A   21213.52394222  .00001329  00000-0  39715-4 0  9999
2 39380  40.4993 155.8710 0002278 159.5168 200.5739 15.38834776429941
YAOGAN 19               
1 39410U 13065A   21213.77850522 -.00000029  00000-0  34570-4 0  9992
2 39410 100.1126 251.3895 0009208 233.4830 126.4432 13.15496441369586
APRIZESAT 7             
1 39416U 13066A   21213.45787758  .00000088  00000-0  16546-4 0  9991
2 39416  97.5394 205.3816 0040378 334.6004  25.3226 14.84096657416572
ZACUBE-1 (TSHEPISOSAT)  
1 39417U 13066B   21213.36347438  .00000329  00000-0  47121-4 0  9990
2 39417  97.5952 195.3698 0059044  15.4855 344.8147 14.81555742415726
SKYSAT-A                
1 39418U 13066C   21213.45371031 -.00000562  00000-0 -41153-4 0  9997
2 39418  97.5904 289.1823 0020042 260.6345  99.2612 14.99201597420707
DUBAISAT-2              
1 39419U 13066D   21213.55210738  .00000805  00000-0  79750-4 0  9997
2 39419  97.4873 256.0563 0011999 273.4367  86.5485 14.94361431419415
OPTOS                   
1 39420U 13066E   21213.57169776  .00000197  00000-0  43169-4 0  9995
2 39420  97.8098 143.4182 0135564 289.1663  69.4908 14.62618020410509
STSAT-3                 
1 39422U 13066G   21213.52247832  .00000023  00000-0  78059-5 0  9997
2 39422  97.4777 230.9678 0021313 268.2635  91.6164 14.89988274418190
WNISAT-1                
1 39423U 13066H   21213.42405917  .00000168  00000-0  42457-4 0  9999
2 39423  97.7900 112.7931 0176413  57.0842 304.7195 14.53236927407975
APRIZESAT 8             
1 39425U 13066K   21213.42346571  .00000102  00000-0  19216-4 0  9996
2 39425  97.5841 196.0172 0052112  11.0034 349.2306 14.81297786415588
TRITON-1                
1 39427U 13066M   21213.56723213  .00000216  00000-0  42359-4 0  9995
2 39427  97.7767 159.1406 0112475 206.2441 153.3040 14.68273173411830
DELFI-N3XT              
1 39428U 13066N   21213.26780787  .00000302  00000-0  55679-4 0  9997
2 39428  97.7811 157.3345 0118440 220.3568 138.8805 14.68057524411543
GOMX-1                  
1 39430U 13066Q   21213.57049319  .00000340  00000-0  70346-4 0  9993
2 39430  97.8124 134.0494 0150076 333.3826  25.9722 14.59647796409620
FIRST-MOVE              
1 39439U 13066Z   21213.43098121  .00000696  00000-0  89605-4 0  9994
2 39439  97.6001 196.9945 0065073  12.8018 347.4830 14.82682586414612
CUBEBUG-2 (LO-74)       
1 39440U 13066AA  21213.18715316  .00000306  00000-0  48911-4 0  9993
2 39440  97.6790 180.3325 0081363  90.3343 270.7192 14.76277645414225
NEE-02 KRYSAOR          
1 39441U 13066AB  21213.34910921  .00000181  00000-0  32424-4 0  9994
2 39441  97.6887 177.8107 0082933 100.9805 260.0748 14.75207131412833
FUNCUBE-1 (AO-73)       
1 39444U 13066AE  21213.38748894  .00000412  00000-0  56303-4 0  9998
2 39444  97.5857 197.7647 0057830   5.6040 354.5808 14.82472621414094
UWE-3                   
1 39446U 13066AG  21213.35366591  .00000327  00000-0  49349-4 0  9994
2 39446  97.6396 187.3735 0070966  53.6532 307.1202 14.78819102413143
SWARM B                 
1 39451U 13067A   21213.56674644  .00000506  00000-0  20534-4 0  9999
2 39451  87.7577 157.1768 0004110  89.6047 270.5670 15.22077270412287
SWARM A                 
1 39452U 13067B   21213.61405622  .00001840  00000-0  37042-4 0  9998
2 39452  87.3632 341.2971 0002358 102.8734 257.2788 15.45818700432517
SWARM C                 
1 39453U 13067C   21213.61401366  .00001951  00000-0  39324-4 0  9998
2 39453  87.3484 341.4196 0002356 102.7753 257.3768 15.45819014432475
SHIYAN 5 (SY-5)         
1 39455U 13068A   21213.50635757  .00000032  00000-0  22388-4 0  9993
2 39455  98.2145 132.8943 0013722 312.4215  47.5809 14.41928610404939
SES-8                   
1 39460U 13071A   21213.51368878 -.00000268  00000-0  00000-0 0  9996
2 39460   0.0544 257.5819 0002438 214.6368 118.0372  1.00272017 26595
AEROCUBE 5A             
1 39465U 13072D   21213.43938691  .00004138  00000-0  33875-3 0  9997
2 39465 120.4913 213.7770 0240271 307.6407  50.3070 14.82017855102019
AEROCUBE 5B             
1 39466U 13072E   21213.24881804  .00005813  00000-0  38011-3 0  9998
2 39466 120.4661 273.4050 0207501 321.3152  37.3210 14.93575499102626
INMARSAT 5-F1           
1 39476U 13073A   21213.18243987  .00000029  00000-0  00000-0 0  9995
2 39476   0.0236  78.9641 0000373 160.8648 198.4485  1.00268063 27726
TKSAT-1 (TUPAC KATARI)  
1 39481U 13075A   21213.40219637 -.00000193  00000-0  00000-0 0  9996
2 39481   0.0030 226.7869 0002326 262.1099 238.9136  1.00273218 27737
